*******************************************************************************
Ephemeris / WWW_USER Mon Mar 24 09:14:37 2025 Pasadena, USA      / Horizons    
*******************************************************************************
Target body name: (2013 AZ60)                     {source: JPL#49}
Center body name: Earth (399)                     {source: DE441}
Center-site name: Mauna Kea
*******************************************************************************
Start time      : A.D. 2018-Oct-10 04:12:00.0000 UT      
Stop  time      : A.D. 2018-Oct-10 16:05:00.0000 UT      
Step-size       : 1 minutes
*******************************************************************************
Target pole/equ : undefined
Target radii    : undefined                                                    
Center geodetic : 204.5278, 19.8260847, 4.21024   {E-lon(deg),Lat(deg),Alt(km)}
Center cylindric: 204.5278, 6006.35451, 2151.0229 {E-lon(deg),Dxy(km),Dz(km)}
Center pole/equ : ITRF93                          {East-longitude positive}
Center radii    : 6378.137, 6378.137, 6356.752 km {Equator_a, b, pole_c}       
Target primary  : Sun
Vis. interferer : MOON (R_eq= 1737.400) km        {source: DE441}
Rel. light bend : Sun                             {source: DE441}
Rel. lght bnd GM: 1.3271E+11 km^3/s^2                                          
Small-body perts: Yes                             {source: SB441-N16}
Atmos refraction: NO (AIRLESS)
RA format       : HMS
Time format     : CAL 
Calendar mode   : Mixed Julian/Gregorian
RTS-only print  : NO       
EOP file        : eop.250321.p250617                                           
EOP coverage    : DATA-BASED 1962-JAN-20 TO 2025-MAR-21. PREDICTS-> 2025-JUN-16
Units conversion: 1 au= 149597870.700 km, c= 299792.458 km/s, 1 day= 86400.0 s 
Table cut-offs 1: Elevation (-90.0deg=NO ),Airmass (>38.000=NO), Daylight (YES)
Table cut-offs 2: Solar elongation (  0.0,180.0=NO ),Local Hour Angle( 0.0=NO )
Table cut-offs 3: RA/DEC angular rate (     0.0=NO )                           
*******************************************************************************
Initial IAU76/J2000 heliocentric ecliptic osculating elements (au, days, deg.):
  EPOCH=  2457400.5 ! 2016-Jan-13.00 (TDB)         Residual RMS= .1326         
   EC= .9891456016948332   QR= 7.910280980491398   TP= 2456989.3208761909      
   OM= 349.2102750469422   W=  158.2320149266156   IN= 16.53862471305098       
  Equivalent ICRF heliocentric cartesian coordinates (au, au/d):
   X=-8.215502218447208E+00  Y= 1.083611838195559E+00  Z= 3.298265209415168E-01
  VX=-2.822922434188891E-03 VY=-6.008885131743716E-03 VZ=-5.184670886061429E-03
Asteroid physical parameters (km, seconds, rotational period in hours):        
   GM= n.a.                RAD= n.a.               ROTPER= 9.39                
   H= 10.3                 G= .150                 B-V= n.a.                   
                           ALBEDO= n.a.            STYP= n.a.                  
*******************************************************************************
 Date__(UT)__HR:MN     R.A._________(ICRF)_________DEC
******************************************************
$$SOE
 2018-Oct-10 08:18     13 45 25.114768 -22 34 18.21934
 2018-Oct-10 08:19     13 45 25.132394 -22 34 18.31853
 2018-Oct-10 08:20     13 45 25.150021 -22 34 18.41773
 2018-Oct-10 08:21     13 45 25.167649 -22 34 18.51693
 2018-Oct-10 08:22     13 45 25.185277 -22 34 18.61613
 2018-Oct-10 08:23     13 45 25.202905 -22 34 18.71535
 2018-Oct-10 08:24     13 45 25.220535 -22 34 18.81456
 2018-Oct-10 08:25     13 45 25.238165 -22 34 18.91378
 2018-Oct-10 08:26     13 45 25.255795 -22 34 19.01300
 2018-Oct-10 08:27     13 45 25.273426 -22 34 19.11223
 2018-Oct-10 08:28     13 45 25.291058 -22 34 19.21146
 2018-Oct-10 08:29     13 45 25.308690 -22 34 19.31070
 2018-Oct-10 08:30     13 45 25.326323 -22 34 19.40994
 2018-Oct-10 08:31     13 45 25.343956 -22 34 19.50919
 2018-Oct-10 08:32     13 45 25.361590 -22 34 19.60844
 2018-Oct-10 08:33     13 45 25.379225 -22 34 19.70769
 2018-Oct-10 08:34     13 45 25.396860 -22 34 19.80695
 2018-Oct-10 08:35     13 45 25.414495 -22 34 19.90621
 2018-Oct-10 08:36     13 45 25.432131 -22 34 20.00548
 2018-Oct-10 08:37     13 45 25.449768 -22 34 20.10475
 2018-Oct-10 08:38     13 45 25.467405 -22 34 20.20403
 2018-Oct-10 08:39     13 45 25.485043 -22 34 20.30331
 2018-Oct-10 08:40     13 45 25.502681 -22 34 20.40260
 2018-Oct-10 08:41     13 45 25.520320 -22 34 20.50189
 2018-Oct-10 08:42     13 45 25.537959 -22 34 20.60118
 2018-Oct-10 08:43     13 45 25.555599 -22 34 20.70048
 2018-Oct-10 08:44     13 45 25.573239 -22 34 20.79979
 2018-Oct-10 08:45     13 45 25.590880 -22 34 20.89910
 2018-Oct-10 08:46     13 45 25.608522 -22 34 20.99841
 2018-Oct-10 08:47     13 45 25.626163 -22 34 21.09773
 2018-Oct-10 08:48     13 45 25.643806 -22 34 21.19705
 2018-Oct-10 08:49     13 45 25.661449 -22 34 21.29638
 2018-Oct-10 08:50     13 45 25.679092 -22 34 21.39571
 2018-Oct-10 08:51     13 45 25.696736 -22 34 21.49505
 2018-Oct-10 08:52     13 45 25.714380 -22 34 21.59439
 2018-Oct-10 08:53     13 45 25.732025 -22 34 21.69374
 2018-Oct-10 08:54     13 45 25.749671 -22 34 21.79309
 2018-Oct-10 08:55     13 45 25.767316 -22 34 21.89245
 2018-Oct-10 08:56     13 45 25.784963 -22 34 21.99181
 2018-Oct-10 08:57     13 45 25.802610 -22 34 22.09117
 2018-Oct-10 08:58     13 45 25.820257 -22 34 22.19054
 2018-Oct-10 08:59     13 45 25.837905 -22 34 22.28992
 2018-Oct-10 09:00     13 45 25.855553 -22 34 22.38930
 2018-Oct-10 09:01     13 45 25.873201 -22 34 22.48868
 2018-Oct-10 09:02     13 45 25.890850 -22 34 22.58807
 2018-Oct-10 09:03     13 45 25.908500 -22 34 22.68747
 2018-Oct-10 09:04     13 45 25.926150 -22 34 22.78686
 2018-Oct-10 09:05     13 45 25.943800 -22 34 22.88627
 2018-Oct-10 09:06     13 45 25.961451 -22 34 22.98568
 2018-Oct-10 09:07     13 45 25.979103 -22 34 23.08509
 2018-Oct-10 09:08     13 45 25.996754 -22 34 23.18451
 2018-Oct-10 09:09     13 45 26.014407 -22 34 23.28393
 2018-Oct-10 09:10     13 45 26.032059 -22 34 23.38336
 2018-Oct-10 09:11     13 45 26.049712 -22 34 23.48279
 2018-Oct-10 09:12     13 45 26.067366 -22 34 23.58223
 2018-Oct-10 09:13     13 45 26.085020 -22 34 23.68167
 2018-Oct-10 09:14     13 45 26.102674 -22 34 23.78112
 2018-Oct-10 09:15     13 45 26.120329 -22 34 23.88057
 2018-Oct-10 09:16     13 45 26.137984 -22 34 23.98003
 2018-Oct-10 09:17     13 45 26.155639 -22 34 24.07949
 2018-Oct-10 09:18     13 45 26.173295 -22 34 24.17896
 2018-Oct-10 09:19     13 45 26.190951 -22 34 24.27843
 2018-Oct-10 09:20     13 45 26.208608 -22 34 24.37791
 2018-Oct-10 09:21     13 45 26.226265 -22 34 24.47739
 2018-Oct-10 09:22     13 45 26.243923 -22 34 24.57688
 2018-Oct-10 09:23     13 45 26.261580 -22 34 24.67637
 2018-Oct-10 09:24     13 45 26.279239 -22 34 24.77587
 2018-Oct-10 09:25     13 45 26.296897 -22 34 24.87537
 2018-Oct-10 09:26     13 45 26.314556 -22 34 24.97488
 2018-Oct-10 09:27     13 45 26.332216 -22 34 25.07439
 2018-Oct-10 09:28     13 45 26.349875 -22 34 25.17391
 2018-Oct-10 09:29     13 45 26.367535 -22 34 25.27343
 2018-Oct-10 09:30     13 45 26.385196 -22 34 25.37296
 2018-Oct-10 09:31     13 45 26.402856 -22 34 25.47249
 2018-Oct-10 09:32     13 45 26.420517 -22 34 25.57203
 2018-Oct-10 09:33     13 45 26.438179 -22 34 25.67157
 2018-Oct-10 09:34     13 45 26.455841 -22 34 25.77112
 2018-Oct-10 09:35     13 45 26.473503 -22 34 25.87067
 2018-Oct-10 09:36     13 45 26.491165 -22 34 25.97023
 2018-Oct-10 09:37     13 45 26.508828 -22 34 26.06980
 2018-Oct-10 09:38     13 45 26.526491 -22 34 26.16936
 2018-Oct-10 09:39     13 45 26.544154 -22 34 26.26894
 2018-Oct-10 09:40     13 45 26.561818 -22 34 26.36852
 2018-Oct-10 09:41     13 45 26.579482 -22 34 26.46810
 2018-Oct-10 09:42     13 45 26.597146 -22 34 26.56769
 2018-Oct-10 09:43     13 45 26.614811 -22 34 26.66728
 2018-Oct-10 09:44     13 45 26.632476 -22 34 26.76688
 2018-Oct-10 09:45     13 45 26.650141 -22 34 26.86649
 2018-Oct-10 09:46     13 45 26.667807 -22 34 26.96609
 2018-Oct-10 09:47     13 45 26.685473 -22 34 27.06571
 2018-Oct-10 09:48     13 45 26.703139 -22 34 27.16533
 2018-Oct-10 09:49     13 45 26.720805 -22 34 27.26495
 2018-Oct-10 09:50     13 45 26.738472 -22 34 27.36458
 2018-Oct-10 09:51     13 45 26.756139 -22 34 27.46422
 2018-Oct-10 09:52     13 45 26.773806 -22 34 27.56386
 2018-Oct-10 09:53     13 45 26.791473 -22 34 27.66351
 2018-Oct-10 09:54     13 45 26.809141 -22 34 27.76316
 2018-Oct-10 09:55     13 45 26.826809 -22 34 27.86281
 2018-Oct-10 09:56     13 45 26.844477 -22 34 27.96247
 2018-Oct-10 09:57     13 45 26.862146 -22 34 28.06214
 2018-Oct-10 09:58     13 45 26.879814 -22 34 28.16181
 2018-Oct-10 09:59     13 45 26.897483 -22 34 28.26149
 2018-Oct-10 10:00     13 45 26.915152 -22 34 28.36117
 2018-Oct-10 10:01     13 45 26.932822 -22 34 28.46086
 2018-Oct-10 10:02     13 45 26.950492 -22 34 28.56055
 2018-Oct-10 10:03     13 45 26.968161 -22 34 28.66025
 2018-Oct-10 10:04     13 45 26.985832 -22 34 28.75995
 2018-Oct-10 10:05     13 45 27.003502 -22 34 28.85966
 2018-Oct-10 10:06     13 45 27.021172 -22 34 28.95937
 2018-Oct-10 10:07     13 45 27.038843 -22 34 29.05909
 2018-Oct-10 10:08     13 45 27.056514 -22 34 29.15882
 2018-Oct-10 10:09     13 45 27.074185 -22 34 29.25855
 2018-Oct-10 10:10     13 45 27.091857 -22 34 29.35828
 2018-Oct-10 10:11     13 45 27.109528 -22 34 29.45802
 2018-Oct-10 10:12     13 45 27.127200 -22 34 29.55777
 2018-Oct-10 10:13     13 45 27.144872 -22 34 29.65752
 2018-Oct-10 10:14     13 45 27.162544 -22 34 29.75728
 2018-Oct-10 10:15     13 45 27.180216 -22 34 29.85704
 2018-Oct-10 10:16     13 45 27.197889 -22 34 29.95680
 2018-Oct-10 10:17     13 45 27.215561 -22 34 30.05658
 2018-Oct-10 10:18     13 45 27.233234 -22 34 30.15635
 2018-Oct-10 10:19     13 45 27.250907 -22 34 30.25614
 2018-Oct-10 10:20     13 45 27.268580 -22 34 30.35592
